{
  "type": "FeatureCollection",
  "features": [
    {
      "type": "Feature",
      "properties": {
        "norad_id": 33412,
        "name": "COSMO-SKYMED 3",
        "group": "resource",
        "lat": -13.185306269669965,
        "lon": 11.459023850896811,
        "alt_km": 544.2994794301876,
        "timestamp": "2025-12-08T23:34:03.626196+00:00",
        "meta_object_name": "COSMO-SKYMED 3",
        "meta_object_id": "2008-054A",
        "meta_epoch": "2025-12-08T14:44:06.841248",
        "meta_mean_motion": 15.05293374,
        "meta_eccentricity": 0.00158096,
        "meta_inclination": 97.8459,
        "meta_ra_of_asc_node": 192.9363,
        "meta_arg_of_pericenter": 187.979,
        "meta_mean_anomaly": 172.1187,
        "meta_ephemeris_type": 0,
        "meta_classification_type": "U",
        "meta_norad_cat_id": 33412,
        "meta_element_set_no": 999,
        "meta_rev_at_epoch": 92825,
        "meta_bstar": 0.00056272405,
        "meta_mean_motion_dot": 8.009e-05,
        "meta_mean_motion_ddot": 0,
        "tle_line1": "1 33412U 08054A   25342.61396807  .00008009  00000+0  56272-3 0  9997",
        "tle_line2": "2 33412  97.8459 192.9363 0015809 187.9790 172.1187 15.05293374928256"
      },
      "geometry": {
        "type": "Point",
        "coordinates": [
          11.459023850896811,
          -13.185306269669965
        ]
      }
    },
    {
      "type": "Feature",
      "properties": {
        "norad_id": 33446,
        "name": "YAOGAN-4",
        "group": "resource",
        "lat": 58.48172153900205,
        "lon": 106.23503036138972,
        "alt_km": 623.2081755468607,
        "timestamp": "2025-12-08T23:34:03.626207+00:00",
        "meta_object_name": "YAOGAN-4",
        "meta_object_id": "2008-061A",
        "meta_epoch": "2025-12-08T13:18:28.139040",
        "meta_mean_motion": 14.8266295,
        "meta_eccentricity": 0.00139333,
        "meta_inclination": 97.9177,
        "meta_ra_of_asc_node": 272.6947,
        "meta_arg_of_pericenter": 337.5968,
        "meta_mean_anomaly": 22.4635,
        "meta_ephemeris_type": 0,
        "meta_classification_type": "U",
        "meta_norad_cat_id": 33446,
        "meta_element_set_no": 999,
        "meta_rev_at_epoch": 91741,
        "meta_bstar": 0.00037017674,
        "meta_mean_motion_dot": 2.935e-05,
        "meta_mean_motion_ddot": 0,
        "tle_line1": "1 33446U 08061A   25342.55449235  .00002935  00000+0  37018-3 0  9998",
        "tle_line2": "2 33446  97.9177 272.6947 0013933 337.5968  22.4635 14.82662950917416"
      },
      "geometry": {
        "type": "Point",
        "coordinates": [
          106.23503036138972,
          58.48172153900205
        ]
      }
    },
    {
      "type": "Feature",
      "properties": {
        "norad_id": 33492,
        "name": "GOSAT (IBUKI)",
        "group": "resource",
        "lat": 16.468419942625356,
        "lon": 89.23162446263517,
        "alt_km": 669.3107881056858,
        "timestamp": "2025-12-08T23:34:03.626218+00:00",
        "meta_object_name": "GOSAT (IBUKI)",
        "meta_object_id": "2009-002A",
        "meta_epoch": "2025-12-08T13:40:26.011200",
        "meta_mean_motion": 14.67543603,
        "meta_eccentricity": 9.673e-05,
        "meta_inclination": 98.0769,
        "meta_ra_of_asc_node": 91.2311,
        "meta_arg_of_pericenter": 88.0959,
        "meta_mean_anomaly": 272.0356,
        "meta_ephemeris_type": 0,
        "meta_classification_type": "U",
        "meta_norad_cat_id": 33492,
        "meta_element_set_no": 999,
        "meta_rev_at_epoch": 90350,
        "meta_bstar": 0.00032722853,
        "meta_mean_motion_dot": 1.808e-05,
        "meta_mean_motion_ddot": 0,
        "tle_line1": "1 33492U 09002A   25342.56974550  .00001808  00000+0  32723-3 0  9995",
        "tle_line2": "2 33492  98.0769  91.2311 0000967  88.0959 272.0356 14.67543603903501"
      },
      "geometry": {
        "type": "Point",
        "coordinates": [
          89.23162446263517,
          16.468419942625356
        ]
      }
    },
    {
      "type": "Feature",
      "properties": {
        "norad_id": 35681,
        "name": "DEIMOS-1",
        "group": "resource",
        "lat": -5.400361231902798,
        "lon": 144.4947918156939,
        "alt_km": 649.1051475107834,
        "timestamp": "2025-12-08T23:34:03.626229+00:00",
        "meta_object_name": "DEIMOS-1",
        "meta_object_id": "2009-041A",
        "meta_epoch": "2025-12-08T13:49:23.841696",
        "meta_mean_motion": 14.74943788,
        "meta_eccentricity": 0.00027054,
        "meta_inclination": 97.7153,
        "meta_ra_of_asc_node": 143.3735,
        "meta_arg_of_pericenter": 88.4928,
        "meta_mean_anomaly": 271.6592,
        "meta_ephemeris_type": 0,
        "meta_classification_type": "U",
        "meta_norad_cat_id": 35681,
        "meta_element_set_no": 999,
        "meta_rev_at_epoch": 87878,
        "meta_bstar": 0.00021527145,
        "meta_mean_motion_dot": 1.399e-05,
        "meta_mean_motion_ddot": 0,
        "tle_line1": "1 35681U 09041A   25342.57597039  .00001399  00000+0  21527-3 0  9999",
        "tle_line2": "2 35681  97.7153 143.3735 0002705  88.4928 271.6592 14.74943788878781"
      },
      "geometry": {
        "type": "Point",
        "coordinates": [
          144.4947918156939,
          -5.400361231902798
        ]
      }
    },
    {
      "type": "Feature",
      "properties": {
        "norad_id": 35682,
        "name": "DUBAISAT-1",
        "group": "resource",
        "lat": -64.66076816544289,
        "lon": 130.94662142650887,
        "alt_km": 647.9201316288381,
        "timestamp": "2025-12-08T23:34:03.626240+00:00",
        "meta_object_name": "DUBAISAT-1",
        "meta_object_id": "2009-041B",
        "meta_epoch": "2025-12-08T15:43:21.468576",
        "meta_mean_motion": 14.74586985,
        "meta_eccentricity": 0.00098181,
        "meta_inclination": 97.979,
        "meta_ra_of_asc_node": 113.3952,
        "meta_arg_of_pericenter": 328.6971,
        "meta_mean_anomaly": 31.3652,
        "meta_ephemeris_type": 0,
        "meta_classification_type": "U",
        "meta_norad_cat_id": 35682,
        "meta_element_set_no": 999,
        "meta_rev_at_epoch": 87701,
        "meta_bstar": 0.00039713405,
        "meta_mean_motion_dot": 2.598e-05,
        "meta_mean_motion_ddot": 0,
        "tle_line1": "1 35682U 09041B   25342.65510959  .00002598  00000+0  39713-3 0  9993",
        "tle_line2": "2 35682  97.9790 113.3952 0009818 328.6971  31.3652 14.74586985877013"
      },
      "geometry": {
        "type": "Point",
        "coordinates": [
          130.94662142650887,
          -64.66076816544289
        ]
      }
    },
    {
      "type": "Feature",
      "properties": {
        "norad_id": 35931,
        "name": "OCEANSAT-2",
        "group": "resource",
        "lat": 43.858298492397736,
        "lon": -24.02297976250526,
        "alt_km": 879.633622153432,
        "timestamp": "2025-12-08T23:34:03.626251+00:00",
        "meta_object_name": "OCEANSAT-2",
        "meta_object_id": "2009-051A",
        "meta_epoch": "2025-12-08T14:46:41.327904",
        "meta_mean_motion": 13.99625607,
        "meta_eccentricity": 0.00163797,
        "meta_inclination": 98.2226,
        "meta_ra_of_asc_node": 343.6347,
        "meta_arg_of_pericenter": 55.7946,
        "meta_mean_anomaly": 304.477,
        "meta_ephemeris_type": 0,
        "meta_classification_type": "U",
        "meta_norad_cat_id": 35931,
        "meta_element_set_no": 999,
        "meta_rev_at_epoch": 85267,
        "meta_bstar": -7.4881477e-05,
        "meta_mean_motion_dot": -1.47e-06,
        "meta_mean_motion_ddot": 0,
        "tle_line1": "1 35931U 09051A   25342.61575611 -.00000147  00000+0 -74881-4 0  9999",
        "tle_line2": "2 35931  98.2226 343.6347 0016379  55.7946 304.4770 13.99625607852675"
      },
      "geometry": {
        "type": "Point",
        "coordinates": [
          -24.02297976250526,
          43.858298492397736
        ]
      }
    },
    {
      "type": "Feature",
      "properties": {
        "norad_id": 35946,
        "name": "WORLDVIEW-2 (WV-2)",
        "group": "resource",
        "lat": 11.475461047279742,
        "lon": 52.38376172162516,
        "alt_km": 765.9201797617825,
        "timestamp": "2025-12-08T23:34:03.626262+00:00",
        "meta_object_name": "WORLDVIEW-2 (WV-2)",
        "meta_object_id": "2009-055A",
        "meta_epoch": "2025-12-08T15:09:43.584480",
        "meta_mean_motion": 14.37650271,
        "meta_eccentricity": 0.00053834,
        "meta_inclination": 98.4764,
        "meta_ra_of_asc_node": 53.7733,
        "meta_arg_of_pericenter": 76.7754,
        "meta_mean_anomaly": 283.4033,
        "meta_ephemeris_type": 0,
        "meta_classification_type": "U",
        "meta_norad_cat_id": 35946,
        "meta_element_set_no": 999,
        "meta_rev_at_epoch": 84826,
        "meta_bstar": 0.00014914338,
        "meta_mean_motion_dot": 4.04e-06,
        "meta_mean_motion_ddot": 0,
        "tle_line1": "1 35946U 09055A   25342.63175445  .00000404  00000+0  14914-3 0  9996",
        "tle_line2": "2 35946  98.4764  53.7733 0005383  76.7754 283.4033 14.37650271848267"
      },
      "geometry": {
        "type": "Point",
        "coordinates": [
          52.38376172162516,
          11.475461047279742
        ]
      }
    }
  ]
}